STARLINK-30142          
1 56836U 23079P   26068.14932778 -.00000951  00000+0 -25056-4 0  9990
2 56836  42.9981 106.8569 0000928 278.1929  81.8818 15.27563421152845
LIME                    
1 62648U 25009AR  26068.73906781  .00013254  00000+0  47723-3 0  9995
2 62648  97.3985 151.4831 0001635  35.9029 324.2320 15.28703313 63766
